[
  {
    "name": "STARLINK-31824",
    "noradId": "59804",
    "line1": "1 59804U 24093Y   26205.22328878  .00002463  00000+0  98946-4 0  9993",
    "line2": "2 59804  43.0003 158.0654 0000523 272.1232  87.9560 15.27592997123575"
  },
  {
    "name": "STARLINK-31947",
    "noradId": "59835",
    "line1": "1 59835U 24097A   26205.11378573 -.00001430  00000+0 -42470-4 0  9992",
    "line2": "2 59835  43.0033 223.6995 0001509 273.6724  86.3955 15.27570003122783"
  },
  {
    "name": "STARLINK-31929",
    "noradId": "59836",
    "line1": "1 59836U 24097B   26205.34977524  .00000929  00000+0  43284-4 0  9993",
    "line2": "2 59836  42.9989 222.8809 0000904 273.8070  86.2678 15.27580208122814"
  },
  {
    "name": "STARLINK-31927",
    "noradId": "59837",
    "line1": "1 59837U 24097C   26205.06639173  .00000557  00000+0  29774-4 0  9993",
    "line2": "2 59837  42.9999 224.1968 0001219 272.3700  87.7012 15.27571141122770"
  },
  {
    "name": "STARLINK-31855",
    "noradId": "59838",
    "line1": "1 59838U 24097D   26205.43687529  .00017721  00000+0  65145-3 0  9995",
    "line2": "2 59838  43.0038 221.8109 0002145 282.8247  77.2365 15.27604865122831"
  },
  {
    "name": "STARLINK-31887",
    "noradId": "59839",
    "line1": "1 59839U 24097E   26205.35363574  .00000001  00000+0  95373-5 0  9999",
    "line2": "2 59839  43.0011 222.9059 0001071 269.4200  90.6529 15.27588213122813"
  },
  {
    "name": "STARLINK-31852",
    "noradId": "59841",
    "line1": "1 59841U 24097G   26205.06977999 -.00000316  00000+0 -19827-5 0  9993",
    "line2": "2 59841  43.0002 216.4313 0000967 285.0540  75.0205 15.27575319122867"
  },
  {
    "name": "STARLINK-31906",
    "noradId": "59842",
    "line1": "1 59842U 24097H   26205.40101271  .00002653  00000+0  10583-3 0  9996",
    "line2": "2 59842  42.9992 222.4057 0001020 264.4705  95.6030 15.27598656122820"
  },
  {
    "name": "STARLINK-31857",
    "noradId": "59843",
    "line1": "1 59843U 24097J   26205.10350375  .00000627  00000+0  32329-4 0  9997",
    "line2": "2 59843  43.0030 223.6078 0001569 285.9261  74.1418 15.27572578122787"
  },
  {
    "name": "STARLINK-31851",
    "noradId": "59844",
    "line1": "1 59844U 24097K   26205.37918158  .00001329  00000+0  57837-4 0  9997",
    "line2": "2 59844  43.0022 222.2458 0001495 267.8360  92.2320 15.27575872122821"
  },
  {
    "name": "STARLINK-31903",
    "noradId": "59845",
    "line1": "1 59845U 24097L   26205.38657460  .00000300  00000+0  20428-4 0  9999",
    "line2": "2 59845  43.0003 215.3700 0001218 272.7506  87.3206 15.27575788122907"
  },
  {
    "name": "STARLINK-31922",
    "noradId": "59846",
    "line1": "1 59846U 24097M   26205.10736348  .00000783  00000+0  37982-4 0  9991",
    "line2": "2 59846  43.0027 223.6379 0001511 275.6674  84.4006 15.27579396122783"
  },
  {
    "name": "STARLINK-31889",
    "noradId": "59847",
    "line1": "1 59847U 24097N   26205.35877149 -.00003659  00000+0 -12344-3 0  9995",
    "line2": "2 59847  43.0012 222.9487 0001290 276.0249  84.0455 15.27595875122815"
  },
  {
    "name": "STARLINK-31859",
    "noradId": "59848",
    "line1": "1 59848U 24097P   26205.32457889  .00031215  00000+0  11160-2 0  9999",
    "line2": "2 59848  43.0003 215.7647 0001967 272.0545  88.0082 15.28249673122891"
  },
  {
    "name": "STARLINK-31895",
    "noradId": "59849",
    "line1": "1 59849U 24097Q   26205.38303747  .00015976  00000+0  58859-3 0  9992",
    "line2": "2 59849  43.0013 222.2751 0001760 271.9042  88.1608 15.27592288122823"
  },
  {
    "name": "STARLINK-31899",
    "noradId": "59850",
    "line1": "1 59850U 24097R   26205.12535332 -.00004172  00000+0 -14216-3 0  9990",
    "line2": "2 59850  43.0021 223.7793 0001609 286.8781  73.1895 15.27584156122785"
  },
  {
    "name": "STARLINK-31896",
    "noradId": "59851",
    "line1": "1 59851U 24097S   26205.39074898  .00000628  00000+0  32358-4 0  9993",
    "line2": "2 59851  43.0005 222.3297 0001365 279.1978  80.8719 15.27576491122822"
  },
  {
    "name": "STARLINK-31892",
    "noradId": "59853",
    "line1": "1 59853U 24097U   26205.34334939 -.00002475  00000+0 -80429-4 0  9991",
    "line2": "2 59853  42.9978 222.8320 0001202 267.7784  92.2930 15.27591402122811"
  },
  {
    "name": "STARLINK-31891",
    "noradId": "59854",
    "line1": "1 59854U 24097V   26205.34720482 -.00000033  00000+0  83153-5 0  9999",
    "line2": "2 59854  42.9996 222.8591 0001141 274.8169  85.2552 15.27580182122815"
  },
  {
    "name": "STARLINK-31882",
    "noradId": "59855",
    "line1": "1 59855U 24097W   26205.32375880  .00000571  00000+0  30280-4 0  9994",
    "line2": "2 59855  42.9992 215.7470 0000707 282.8912  77.1860 15.27576601122892"
  },
  {
    "name": "STARLINK-31691",
    "noradId": "59856",
    "line1": "1 59856U 24097X   26205.09966641  .00000004  00000+0  96522-5 0  9993",
    "line2": "2 59856  43.0014 223.5726 0000605 233.7718 126.3078 15.27563289122781"
  },
  {
    "name": "STARLINK-31569",
    "noradId": "59857",
    "line1": "1 59857U 24097Y   26205.33178986  .00005640  00000+0  21451-3 0  9996",
    "line2": "2 59857  43.0009 222.7451 0001461 261.7787  98.2899 15.27547284122819"
  },
  {
    "name": "STARLINK-31654",
    "noradId": "59858",
    "line1": "1 59858U 24098A   26205.09629931  .00000956  00000+0  44274-4 0  9996",
    "line2": "2 59858  43.0027 220.2210 0001321 280.8916  79.1787 15.27573362122783"
  },
  {
    "name": "STARLINK-31442",
    "noradId": "59859",
    "line1": "1 59859U 24098B   26205.43091255 -.00000103  00000+0  57675-5 0  9992",
    "line2": "2 59859  43.0002 229.6527 0001317 274.6494  85.4207 15.27583809122715"
  },
  {
    "name": "STARLINK-31651",
    "noradId": "59860",
    "line1": "1 59860U 24098C   26205.13388021  .00001062  00000+0  48112-4 0  9990",
    "line2": "2 59860  43.0018 227.4252 0001498 275.6076  84.4605 15.27574451122716"
  },
  {
    "name": "STARLINK-31584",
    "noradId": "59862",
    "line1": "1 59862U 24098E   26205.12359608 -.00002743  00000+0 -90147-4 0  9994",
    "line2": "2 59862  43.0024 227.3509 0002305 265.3860  94.6728 15.27584445122717"
  },
  {
    "name": "STARLINK-31950",
    "noradId": "59863",
    "line1": "1 59863U 24098F   26205.46852502  .00000256  00000+0  18829-4 0  9995",
    "line2": "2 59863  42.9993 225.6369 0000934 308.5554  51.5214 15.27577006122764"
  },
  {
    "name": "STARLINK-31931",
    "noradId": "59864",
    "line1": "1 59864U 24098G   26205.35573989 -.00000502  00000+0 -87386-5 0  9994",
    "line2": "2 59864  42.9959 226.5103 0000830 290.9996  69.0767 15.27576200122742"
  },
  {
    "name": "STARLINK-31938",
    "noradId": "59865",
    "line1": "1 59865U 24098H   26205.44025118  .00001157  00000+0  51565-4 0  9995",
    "line2": "2 59865  43.0025 225.4164 0001121 266.8773  93.1951 15.27574868122766"
  },
  {
    "name": "STARLINK-31941",
    "noradId": "59866",
    "line1": "1 59866U 24098J   26205.06314529  .00000255  00000+0  18804-4 0  9998",
    "line2": "2 59866  43.0040 210.0864 0001915 286.9772  73.0869 15.27568651122908"
  },
  {
    "name": "STARLINK-31952",
    "noradId": "59867",
    "line1": "1 59867U 24098K   26205.08006121  .00000018  00000+0  10195-4 0  9999",
    "line2": "2 59867  43.0001 227.8766 0001318 277.2653  82.8048 15.27575694122701"
  },
  {
    "name": "STARLINK-31921",
    "noradId": "59868",
    "line1": "1 59868U 24098L   26205.03496607 -.00005093  00000+0 -17566-3 0  9995",
    "line2": "2 59868  43.0005 187.6326 0000903 225.8586 134.2192 15.27585899123154"
  },
  {
    "name": "STARLINK-31760",
    "noradId": "59869",
    "line1": "1 59869U 24098M   26205.35190177 -.00000753  00000+0 -17838-4 0  9995",
    "line2": "2 59869  42.9996 226.4765 0001173 270.2363  89.8354 15.27573116122746"
  },
  {
    "name": "STARLINK-31945",
    "noradId": "59870",
    "line1": "1 59870U 24098N   26205.08938876  .00000706  00000+0  35193-4 0  9993",
    "line2": "2 59870  43.0004 223.6177 0001216 266.2339  93.8373 15.27570797122751"
  },
  {
    "name": "STARLINK-31937",
    "noradId": "59871",
    "line1": "1 59871U 24098P   26205.32844261  .00005136  00000+0  19607-3 0  9998",
    "line2": "2 59871  42.9998 219.3791 0001325 272.6311  87.4389 15.27572576122829"
  },
  {
    "name": "STARLINK-31940",
    "noradId": "59873",
    "line1": "1 59873U 24098R   26205.08224220 -.00012480  00000+0 -44614-3 0  9998",
    "line2": "2 59873  43.0019 220.1054 0001501 191.8108 168.2709 15.27478052122795"
  },
  {
    "name": "STARLINK-31933",
    "noradId": "59874",
    "line1": "1 59874U 24098S   26205.13002642  .00007357  00000+0  27692-3 0  9999",
    "line2": "2 59874  43.0026 227.3968 0001553 262.9078  97.1597 15.27542933122717"
  },
  {
    "name": "STARLINK-31936",
    "noradId": "59875",
    "line1": "1 59875U 24098T   26204.99956781 -.00000685  00000+0 -15372-4 0  9997",
    "line2": "2 59875  42.9993 195.8569 0000882 271.6019  88.4731 15.27574933123057"
  },
  {
    "name": "STARLINK-31935",
    "noradId": "59876",
    "line1": "1 59876U 24098U   26205.34802792 -.00002036  00000+0 -64472-4 0  9997",
    "line2": "2 59876  42.9998 226.4456 0001453 271.4592  88.6093 15.27588663122741"
  },
  {
    "name": "STARLINK-31934",
    "noradId": "59877",
    "line1": "1 59877U 24098V   26205.50741211  .00002510  00000+0  10076-3 0  9999",
    "line2": "2 59877  43.0023 221.6030 0001365 280.8401  79.2297 15.27562626122814"
  },
  {
    "name": "STARLINK-31943",
    "noradId": "59878",
    "line1": "1 59878U 24098W   26205.07538115  .00122743  00000+0  19472-2 0  9998",
    "line2": "2 59878  42.9928 217.3950 0019754  89.0647 271.2477 15.52013847122179"
  },
  {
    "name": "STARLINK-31926",
    "noradId": "59879",
    "line1": "1 59879U 24098X   26205.02633533  .00002742  00000+0  10909-3 0  9997",
    "line2": "2 59879  43.0030 217.5354 0001843 289.6419  70.4234 15.27595092122811"
  }
]